[{"OBJECT_NAME":"IRIDIUM 152","OBJECT_ID":"2018-047D","EPOCH":"2026-03-14T15:14:46.281696","MEAN_MOTION":14.34217576,"ECCENTRICITY":0.00022208,"INCLINATION":86.3965,"RA_OF_ASC_NODE":127.8769,"ARG_OF_PERICENTER":91.3229,"MEAN_ANOMALY":268.8221,"EPHEMERIS_TYPE":0,"CLASSIFICATION_TYPE":"U","NORAD_CAT_ID":43479,"ELEMENT_SET_NO":999,"REV_AT_EPOCH":40893,"BSTAR":4.0711322e-5,"MEAN_MOTION_DOT":1.34e-6,"MEAN_MOTION_DDOT":0},{"OBJECT_NAME":"IRIDIUM 147","OBJECT_ID":"2018-047E","EPOCH":"2026-03-14T13:43:26.279616","MEAN_MOTION":14.34217898,"ECCENTRICITY":0.00022931,"INCLINATION":86.3966,"RA_OF_ASC_NODE":127.9069,"ARG_OF_PERICENTER":98.1579,"MEAN_ANOMALY":261.9877,"EPHEMERIS_TYPE":0,"CLASSIFICATION_TYPE":"U","NORAD_CAT_ID":43480,"ELEMENT_SET_NO":999,"REV_AT_EPOCH":40892,"BSTAR":5.1898933e-5,"MEAN_MOTION_DOT":1.65e-6,"MEAN_MOTION_DDOT":0},{"OBJECT_NAME":"IRIDIUM 110","OBJECT_ID":"2018-047F","EPOCH":"2026-03-14T13:52:34.332960","MEAN_MOTION":14.34217421,"ECCENTRICITY":0.00022848,"INCLINATION":86.397,"RA_OF_ASC_NODE":127.9933,"ARG_OF_PERICENTER":84.9527,"MEAN_ANOMALY":275.193,"EPHEMERIS_TYPE":0,"CLASSIFICATION_TYPE":"U","NORAD_CAT_ID":43481,"ELEMENT_SET_NO":999,"REV_AT_EPOCH":40891,"BSTAR":-8.447418e-6,"MEAN_MOTION_DOT":-4.0e-8,"MEAN_MOTION_DDOT":0},{"OBJECT_NAME":"IRIDIUM 162","OBJECT_ID":"2018-047G","EPOCH":"2026-03-14T14:17:26.074752","MEAN_MOTION":14.4327874,"ECCENTRICITY":0.00021464,"INCLINATION":86.4488,"RA_OF_ASC_NODE":127.9254,"ARG_OF_PERICENTER":95.0298,"MEAN_ANOMALY":265.1148,"EPHEMERIS_TYPE":0,"CLASSIFICATION_TYPE":"U","NORAD_CAT_ID":43482,"ELEMENT_SET_NO":999,"REV_AT_EPOCH":41148,"BSTAR":0.00010319334,"MEAN_MOTION_DOT":3.67e-6,"MEAN_MOTION_DDOT":0},{"OBJECT_NAME":"IRIDIUM 160","OBJECT_ID":"2018-061A","EPOCH":"2026-03-14T14:15:02.516832","MEAN_MOTION":14.34217788,"ECCENTRICITY":0.00023412,"INCLINATION":86.3911,"RA_OF_ASC_NODE":96.3633,"ARG_OF_PERICENTER":90.4333,"MEAN_ANOMALY":269.7132,"EPHEMERIS_TYPE":0,"CLASSIFICATION_TYPE":"U","NORAD_CAT_ID":43569,"ELEMENT_SET_NO":999,"REV_AT_EPOCH":39981,"BSTAR":1.9553792e-5,"MEAN_MOTION_DOT":7.5e-7,"MEAN_MOTION_DDOT":0},{"OBJECT_NAME":"IRIDIUM 166","OBJECT_ID":"2018-061B","EPOCH":"2026-03-14T13:11:06.490752","MEAN_MOTION":14.34217733,"ECCENTRICITY":0.00022564,"INCLINATION":86.391,"RA_OF_ASC_NODE":96.3337,"ARG_OF_PERICENTER":95.1761,"MEAN_ANOMALY":264.9692,"EPHEMERIS_TYPE":0,"CLASSIFICATION_TYPE":"U","NORAD_CAT_ID":43570,"ELEMENT_SET_NO":999,"REV_AT_EPOCH":39983,"BSTAR":1.3778517e-5,"MEAN_MOTION_DOT":5.8e-7,"MEAN_MOTION_DDOT":0},{"OBJECT_NAME":"IRIDIUM 158","OBJECT_ID":"2018-061C","EPOCH":"2026-03-14T14:05:54.516192","MEAN_MOTION":14.34217488,"ECCENTRICITY":0.00020826,"INCLINATION":86.3909,"RA_OF_ASC_NODE":96.3278,"ARG_OF_PERICENTER":90.247,"MEAN_ANOMALY":269.8965,"EPHEMERIS_TYPE":0,"CLASSIFICATION_TYPE":"U","NORAD_CAT_ID":43571,"ELEMENT_SET_NO":999,"REV_AT_EPOCH":39980,"BSTAR":1.8151714e-5,"MEAN_MOTION_DOT":7.1e-7,"MEAN_MOTION_DDOT":0},{"OBJECT_NAME":"IRIDIUM 165","OBJECT_ID":"2018-061D","EPOCH":"2026-03-14T14:42:26.476416","MEAN_MOTION":14.34217603,"ECCENTRICITY":0.00022479,"INCLINATION":86.3911,"RA_OF_ASC_NODE":96.3617,"ARG_OF_PERICENTER":95.6604,"MEAN_ANOMALY":264.4848,"EPHEMERIS_TYPE":0,"CLASSIFICATION_TYPE":"U","NORAD_CAT_ID":43572,"ELEMENT_SET_NO":999,"REV_AT_EPOCH":39983,"BSTAR":1.2963621e-5,"MEAN_MOTION_DOT":5.6e-7,"MEAN_MOTION_DDOT":0},{"OBJECT_NAME":"IRIDIUM 155","OBJECT_ID":"2018-061E","EPOCH":"2026-03-14T13:47:38.469984","MEAN_MOTION":14.34217777,"ECCENTRICITY":0.00021003,"INCLINATION":86.3908,"RA_OF_ASC_NODE":96.2513,"ARG_OF_PERICENTER":94.2882,"MEAN_ANOMALY":265.8554,"EPHEMERIS_TYPE":0,"CLASSIFICATION_TYPE":"U","NORAD_CAT_ID":43573,"ELEMENT_SET_NO":999,"REV_AT_EPOCH":39979,"BSTAR":1.6595044e-5,"MEAN_MOTION_DOT":6.6e-7,"MEAN_MOTION_DDOT":0},{"OBJECT_NAME":"IRIDIUM 154","OBJECT_ID":"2018-061F","EPOCH":"2026-03-14T13:20:14.534592","MEAN_MOTION":14.34217264,"ECCENTRICITY":0.00021851,"INCLINATION":86.3914,"RA_OF_ASC_NODE":96.3881,"ARG_OF_PERICENTER":96.4808,"MEAN_ANOMALY":263.6637,"EPHEMERIS_TYPE":0,"CLASSIFICATION_TYPE":"U","NORAD_CAT_ID":43574,"ELEMENT_SET_NO":999,"REV_AT_EPOCH":39984,"BSTAR":-4.6437779e-5,"MEAN_MOTION_DOT":-1.1e-6,"MEAN_MOTION_DDOT":0},{"OBJECT_NAME":"IRIDIUM 163","OBJECT_ID":"2018-061G","EPOCH":"2026-03-14T14:33:18.431712","MEAN_MOTION":14.34217464,"ECCENTRICITY":0.00020672,"INCLINATION":86.391,"RA_OF_ASC_NODE":96.2852,"ARG_OF_PERICENTER":91.01,"MEAN_ANOMALY":269.1333,"EPHEMERIS_TYPE":0,"CLASSIFICATION_TYPE":"U","NORAD_CAT_ID":43575,"ELEMENT_SET_NO":999,"REV_AT_EPOCH":39982,"BSTAR":-2.730297e-6,"MEAN_MOTION_DOT":1.2e-7,"MEAN_MOTION_DDOT":0},{"OBJECT_NAME":"IRIDIUM 156","OBJECT_ID":"2018-061H","EPOCH":"2026-03-14T13:56:46.449024","MEAN_MOTION":14.34217612,"ECCENTRICITY":0.00020814,"INCLINATION":86.3909,"RA_OF_ASC_NODE":96.3031,"ARG_OF_PERICENTER":95.2189,"MEAN_ANOMALY":264.9245,"EPHEMERIS_TYPE":0,"CLASSIFICATION_TYPE":"U","NORAD_CAT_ID":43576,"ELEMENT_SET_NO":999,"REV_AT_EPOCH":39981,"BSTAR":1.1645025e-5,"MEAN_MOTION_DOT":5.2e-7,"MEAN_MOTION_DDOT":0},{"OBJECT_NAME":"IRIDIUM 164","OBJECT_ID":"2018-061J","EPOCH":"2026-03-14T13:29:22.336512","MEAN_MOTION":14.34218613,"ECCENTRICITY":0.00024019,"INCLINATION":86.3914,"RA_OF_ASC_NODE":96.3501,"ARG_OF_PERICENTER":94.5167,"MEAN_ANOMALY":265.6303,"EPHEMERIS_TYPE":0,"CLASSIFICATION_TYPE":"U","NORAD_CAT_ID":43577,"ELEMENT_SET_NO":999,"REV_AT_EPOCH":39985,"BSTAR":3.2189193e-5,"MEAN_MOTION_DOT":1.1e-6,"MEAN_MOTION_DDOT":0},{"OBJECT_NAME":"IRIDIUM 159","OBJECT_ID":"2018-061K","EPOCH":"2026-03-14T14:24:10.516608","MEAN_MOTION":14.34217146,"ECCENTRICITY":0.0002241,"INCLINATION":86.3909,"RA_OF_ASC_NODE":96.2724,"ARG_OF_PERICENTER":89.688,"MEAN_ANOMALY":270.4573,"EPHEMERIS_TYPE":0,"CLASSIFICATION_TYPE":"U","NORAD_CAT_ID":43578,"ELEMENT_SET_NO":999,"REV_AT_EPOCH":39982,"BSTAR":-1.6092454e-5,"MEAN_MOTION_DOT":-2.5e-7,"MEAN_MOTION_DDOT":0},{"OBJECT_NAME":"IRIDIUM 180","OBJECT_ID":"2019-002A","EPOCH":"2026-03-14T09:22:02.959392","MEAN_MOTION":14.34218031,"ECCENTRICITY":0.00022445,"INCLINATION":86.3981,"RA_OF_ASC_NODE":33.2002,"ARG_OF_PERICENTER":84.4544,"MEAN_ANOMALY":275.6908,"EPHEMERIS_TYPE":0,"CLASSIFICATION_TYPE":"U","NORAD_CAT_ID":43922,"ELEMENT_SET_NO":999,"REV_AT_EPOCH":37540,"BSTAR":2.4824594e-5,"MEAN_MOTION_DOT":8.9e-7,"MEAN_MOTION_DDOT":0},{"OBJECT_NAME":"IRIDIUM 176","OBJECT_ID":"2019-002B","EPOCH":"2026-03-14T08:15:26.032320","MEAN_MOTION":14.72249541,"ECCENTRICITY":0.00025147,"INCLINATION":86.6103,"RA_OF_ASC_NODE":33.1762,"ARG_OF_PERICENTER":90.6414,"MEAN_ANOMALY":269.5091,"EPHEMERIS_TYPE":0,"CLASSIFICATION_TYPE":"U","NORAD_CAT_ID":43923,"ELEMENT_SET_NO":999,"REV_AT_EPOCH":38529,"BSTAR":8.9535371e-5,"MEAN_MOTION_DOT":5.89e-6,"MEAN_MOTION_DDOT":0},{"OBJECT_NAME":"IRIDIUM 168","OBJECT_ID":"2019-002C","EPOCH":"2026-03-14T14:14:18.941856","MEAN_MOTION":14.34219573,"ECCENTRICITY":0.00021456,"INCLINATION":86.3984,"RA_OF_ASC_NODE":33.1898,"ARG_OF_PERICENTER":86.4213,"MEAN_ANOMALY":273.7228,"EPHEMERIS_TYPE":0,"CLASSIFICATION_TYPE":"U","NORAD_CAT_ID":43924,"ELEMENT_SET_NO":999,"REV_AT_EPOCH":37541,"BSTAR":0.00010470864,"MEAN_MOTION_DOT":3.13e-6,"MEAN_MOTION_DDOT":0}]
