IRIDIUM 152             
1 43479U 18047D   26073.63525789  .00000134  00000+0  40711-4 0  9994
2 43479  86.3965 127.8769 0002220  91.3229 268.8221 14.34217576408931
IRIDIUM 147             
1 43480U 18047E   26073.57183194  .00000165  00000+0  51899-4 0  9992
2 43480  86.3966 127.9069 0002293  98.1579 261.9877 14.34217898408928
IRIDIUM 110             
1 43481U 18047F   26073.57817515 -.00000004  00000+0 -84474-5 0  9994
2 43481  86.3970 127.9933 0002284  84.9527 275.1930 14.34217421408918
IRIDIUM 162             
1 43482U 18047G   26073.59544068  .00000367  00000+0  10319-3 0  9992
2 43482  86.4488 127.9254 0002146  95.0298 265.1148 14.43278740411482
IRIDIUM 160             
1 43569U 18061A   26073.59377913  .00000075  00000+0  19554-4 0  9994
2 43569  86.3911  96.3633 0002341  90.4333 269.7132 14.34217788399814
IRIDIUM 166             
1 43570U 18061B   26073.54938068  .00000058  00000+0  13779-4 0  9999
2 43570  86.3910  96.3337 0002256  95.1761 264.9692 14.34217733399838
IRIDIUM 158             
1 43571U 18061C   26073.58743653  .00000071  00000+0  18152-4 0  9993
2 43571  86.3909  96.3278 0002082  90.2470 269.8965 14.34217488399802
IRIDIUM 165             
1 43572U 18061D   26073.61280644  .00000056  00000+0  12964-4 0  9992
2 43572  86.3911  96.3617 0002247  95.6604 264.4848 14.34217603399837
IRIDIUM 155             
1 43573U 18061E   26073.57475081  .00000066  00000+0  16595-4 0  9994
2 43573  86.3908  96.2513 0002100  94.2882 265.8554 14.34217777399795
IRIDIUM 154             
1 43574U 18061F   26073.55572378 -.00000110  00000+0 -46438-4 0  9991
2 43574  86.3914  96.3881 0002185  96.4808 263.6637 14.34217264399842
IRIDIUM 163             
1 43575U 18061G   26073.60646333  .00000012  00000+0 -27303-5 0  9992
2 43575  86.3910  96.2852 0002067  91.0100 269.1333 14.34217464399825
IRIDIUM 156             
1 43576U 18061H   26073.58109316  .00000052  00000+0  11645-4 0  9999
2 43576  86.3909  96.3031 0002081  95.2189 264.9245 14.34217612399812
IRIDIUM 164             
1 43577U 18061J   26073.56206408  .00000110  00000+0  32189-4 0  9999
2 43577  86.3914  96.3501 0002401  94.5167 265.6303 14.34218613399854
IRIDIUM 159             
1 43578U 18061K   26073.60012172 -.00000025  00000+0 -16092-4 0  9990
2 43578  86.3909  96.2724 0002241  89.6880 270.4573 14.34217146399824
IRIDIUM 180             
1 43922U 19002A   26073.39031203  .00000089  00000+0  24825-4 0  9992
2 43922  86.3981  33.2002 0002244  84.4544 275.6908 14.34218031375401
IRIDIUM 176             
1 43923U 19002B   26073.34405130  .00000589  00000+0  89535-4 0  9996
2 43923  86.6103  33.1762 0002514  90.6414 269.5091 14.72249541385293
IRIDIUM 168             
1 43924U 19002C   26073.59327479  .00000313  00000+0  10471-3 0  9990
2 43924  86.3984  33.1898 0002145  86.4213 273.7228 14.34219573375410
